STARLINK-1008           
1 44714U 19074B   26143.85005199  .00012707  00000+0  25634-3 0  9993
2 44714  53.1534 184.9726 0002765  36.4032 323.7164 15.46930636360444
STARLINK-1012           
1 44718U 19074F   26144.17340574  .00023842  00000+0  46896-3 0  9997
2 44718  53.1575 183.7366 0002587  30.9606 329.1554 15.47169777360486
STARLINK-1017           
1 44723U 19074L   26143.53136192  .00024025  00000+0  82206-3 0  9990
2 44723  53.0466 184.4345 0005127 347.3741  12.7129 15.30133498360401
STARLINK-1020           
1 44725U 19074N   26143.60006102  .00046689  00000+0  76242-3 0  9990
2 44725  53.1576 211.0840 0003624  13.2476 346.8629 15.52123333360033
STARLINK-1036           
1 44741U 19074AE  26143.81478262  .00036665  00000+0  33602-3 0  9997
2 44741  53.0424 180.9956 0002826 326.0153  34.0681 15.67425762360473
STARLINK-1039           
1 44744U 19074AH  26143.92613404  .00025483  00000+0  94521-3 0  9994
2 44744  53.0574 227.6773 0002857   3.8180 356.2839 15.27464314359836
STARLINK-1042           
1 44747U 19074AL  26144.13785338  .00021753  00000+0  34524-3 0  9990
2 44747  53.0416  91.7441 0003579  59.7198 300.4165 15.53319434361788
STARLINK-1043           
1 44748U 19074AM  26143.85209889  .00028912  00000+0  33955-3 0  9992
2 44748  53.0486 190.3557 0001072  66.9036 293.2089 15.61254325360359
STARLINK-1046           
1 44751U 19074AQ  26144.19541720  .00055052  00000+0  86227-3 0  9992
2 44751  53.0474 209.4368 0007052  15.1199 345.0020 15.53189223360112
